IRIDIUM 7               
1 24793U 97020B   24342.87532831  .00001023  00000+0  34820-3 0  9990
2 24793  86.3962 257.0338 0002401  76.9531 283.1933 14.35649611444446
IRIDIUM 5               
1 24795U 97020D   24342.88826809  .00008148  00000+0  71266-3 0  9994
2 24795  86.3923 171.7015 0116908 103.3190 258.1105 14.91382804456922
IRIDIUM 4               
1 24796U 97020E   24342.84031032  .00001027  00000+0  34302-3 0  9996
2 24796  86.3960 254.0496 0002353  83.4955 276.6510 14.36562925444999
IRIDIUM 914             
1 24836U 97030A   24342.88762428  .00001321  00000+0  40922-3 0  9998
2 24836  86.3934 263.2113 0003662 103.2211 256.9397 14.40517785579580
IRIDIUM 16              
1 24841U 97030F   24342.90991990  .00001280  00000+0  41388-3 0  9996
2 24841  86.4016 285.6436 0002574  31.1189 329.0161 14.38381141439508
IRIDIUM 911             
1 24842U 97030G   24342.89820185  .00001778  00000+0  48130-3 0  9996
2 24842  86.4441 284.6137 0015302  24.2269 335.9650 14.47179033447416
IRIDIUM 17              
1 24870U 97034B   24343.19656811  .00001293  00000+0  42590-3 0  9994
2 24870  86.3940 315.0950 0000811  58.3467 301.7810 14.37482770436140
IRIDIUM 920             
1 24871U 97034C   24343.17459813  .00001378  00000+0  42103-3 0  9990
2 24871  86.3955 294.7607 0011670   4.0032 356.1259 14.41189007439326
